STARLINK-32578          
1 61979U 24210W   26067.32557356  .00042418  00000+0  15409-2 0  9997
2 61979  42.9997 187.3287 0000726 232.2096 127.8690 15.27606556 74714
ARCSTONE                
1 64540U 25135N   26068.88991918  .00026427  00000+0  94900-3 0  9995
2 64540  97.4495 185.9194 0004120 166.7863 193.3485 15.28638458 39847
